[
    {
        "Altitude(m)": 607910.9984344022,
        "Argument of Periapsis(deg)": 0.0,
        "Eccentricity": 0.0,
        "Inclination(deg)": 60.0,
        "Latitude(deg)": -14.292884442757373,
        "Longitude(deg)": 33.44267592332649,
        "Mean Anomaly(deg)": -163.63640000000007,
        "RAAN(deg)": 305.0,
        "Satellite Name": "Test1 1354",
        "Satellite Number": 1354,
        "Semi-Major Axis(m)": 6980739.136638005,
        "Time(s)": 0
    },
    {
        "Altitude(m)": 608060.2315637083,
        "Argument of Periapsis(deg)": 0.00010418945913296404,
        "Eccentricity": 0.0,
        "Inclination(deg)": 60.0,
        "Latitude(deg)": -14.82654528069511,
        "Longitude(deg)": 33.73128639271433,
        "Mean Anomaly(deg)": -163.01629385453822,
        "RAAN(deg)": 304.99957995086027,
        "Satellite Name": "Test1 1354",
        "Satellite Number": 1354,
        "Semi-Major Axis(m)": 6980739.136638005,
        "Time(s)": 10
    }
]